{
  "type": "FeatureCollection",
  "features": [
    {
      "type": "Feature",
      "properties": {
        "norad_id": 58701,
        "name": "TIANMU-1 16",
        "group": "weather",
        "lat": -77.22701509107125,
        "lon": -34.54994620174655,
        "alt_km": 496.5192260091553,
        "timestamp": "2025-12-25T22:42:16.640066+00:00",
        "meta_object_name": "TIANMU-1 16",
        "meta_object_id": "2024-004B",
        "meta_epoch": "2025-12-25T18:25:08.062752",
        "meta_mean_motion": 15.24606377,
        "meta_eccentricity": 0.0004437,
        "meta_inclination": 97.457,
        "meta_ra_of_asc_node": 180.5665,
        "meta_arg_of_pericenter": 236.4619,
        "meta_mean_anomaly": 123.6195,
        "meta_ephemeris_type": 0,
        "meta_classification_type": "U",
        "meta_norad_cat_id": 58701,
        "meta_element_set_no": 999,
        "meta_rev_at_epoch": 10933,
        "meta_bstar": 0.00029895,
        "meta_mean_motion_dot": 7.303e-05,
        "meta_mean_motion_ddot": 0,
        "tle_line1": "1 58701U 24004B   25359.76745443  .00007303  00000+0  29895-3 0  9993",
        "tle_line2": "2 58701  97.4570 180.5665 0004437 236.4619 123.6195 15.24606377109339"
      },
      "geometry": {
        "type": "Point",
        "coordinates": [
          -34.54994620174655,
          -77.22701509107125
        ]
      }
    },
    {
      "type": "Feature",
      "properties": {
        "norad_id": 58702,
        "name": "TIANMU-1 17",
        "group": "weather",
        "lat": -13.83218814599368,
        "lon": -176.98992566930897,
        "alt_km": 497.35835068592223,
        "timestamp": "2025-12-25T22:42:16.640076+00:00",
        "meta_object_name": "TIANMU-1 17",
        "meta_object_id": "2024-004C",
        "meta_epoch": "2025-12-25T18:02:24.974016",
        "meta_mean_motion": 15.24648937,
        "meta_eccentricity": 0.0003598,
        "meta_inclination": 97.4603,
        "meta_ra_of_asc_node": 180.9676,
        "meta_arg_of_pericenter": 237.3164,
        "meta_mean_anomaly": 122.7727,
        "meta_ephemeris_type": 0,
        "meta_classification_type": "U",
        "meta_norad_cat_id": 58702,
        "meta_element_set_no": 999,
        "meta_rev_at_epoch": 10932,
        "meta_bstar": 0.00029261,
        "meta_mean_motion_dot": 7.155e-05,
        "meta_mean_motion_ddot": 0,
        "tle_line1": "1 58702U 24004C   25359.75167794  .00007155  00000+0  29261-3 0  9992",
        "tle_line2": "2 58702  97.4603 180.9676 0003598 237.3164 122.7727 15.24648937109323"
      },
      "geometry": {
        "type": "Point",
        "coordinates": [
          -176.98992566930897,
          -13.83218814599368
        ]
      }
    },
    {
      "type": "Feature",
      "properties": {
        "norad_id": 58703,
        "name": "TIANMU-1 18",
        "group": "weather",
        "lat": 74.95213451511913,
        "lon": 152.18087964191048,
        "alt_km": 486.6550019480537,
        "timestamp": "2025-12-25T22:42:16.640086+00:00",
        "meta_object_name": "TIANMU-1 18",
        "meta_object_id": "2024-004D",
        "meta_epoch": "2025-12-25T17:38:34.554624",
        "meta_mean_motion": 15.24631117,
        "meta_eccentricity": 0.0002998,
        "meta_inclination": 97.462,
        "meta_ra_of_asc_node": 181.1491,
        "meta_arg_of_pericenter": 233.8922,
        "meta_mean_anomaly": 126.2038,
        "meta_ephemeris_type": 0,
        "meta_classification_type": "U",
        "meta_norad_cat_id": 58703,
        "meta_element_set_no": 999,
        "meta_rev_at_epoch": 10932,
        "meta_bstar": 0.0003034,
        "meta_mean_motion_dot": 7.418e-05,
        "meta_mean_motion_ddot": 0,
        "tle_line1": "1 58703U 24004D   25359.73512216  .00007418  00000+0  30340-3 0  9996",
        "tle_line2": "2 58703  97.4620 181.1491 0002998 233.8922 126.2038 15.24631117109323"
      },
      "geometry": {
        "type": "Point",
        "coordinates": [
          152.18087964191048,
          74.95213451511913
        ]
      }
    },
    {
      "type": "Feature",
      "properties": {
        "norad_id": 58990,
        "name": "INSAT-3DS",
        "group": "weather",
        "lat": 0.06062171924215812,
        "lon": 157.35645880823705,
        "alt_km": 35788.85919501246,
        "timestamp": "2025-12-25T22:42:16.640097+00:00",
        "meta_object_name": "INSAT-3DS",
        "meta_object_id": "2024-033A",
        "meta_epoch": "2025-12-25T17:45:02.050848",
        "meta_mean_motion": 1.00271114,
        "meta_eccentricity": 0.0001287,
        "meta_inclination": 0.0614,
        "meta_ra_of_asc_node": 99.3053,
        "meta_arg_of_pericenter": 176.3805,
        "meta_mean_anomaly": 167.1768,
        "meta_ephemeris_type": 0,
        "meta_classification_type": "U",
        "meta_norad_cat_id": 58990,
        "meta_element_set_no": 999,
        "meta_rev_at_epoch": 4532,
        "meta_bstar": 0,
        "meta_mean_motion_dot": -1.35e-06,
        "meta_mean_motion_ddot": 0,
        "tle_line1": "1 58990U 24033A   25359.73960707 -.00000135  00000+0  00000+0 0  9994",
        "tle_line2": "2 58990   0.0614  99.3053 0001287 176.3805 167.1768  1.00271114 45328"
      },
      "geometry": {
        "type": "Point",
        "coordinates": [
          157.35645880823705,
          0.06062171924215812
        ]
      }
    },
    {
      "type": "Feature",
      "properties": {
        "norad_id": 59051,
        "name": "METEOR-M2 4",
        "group": "weather",
        "lat": 79.25569591287697,
        "lon": -96.95306974519332,
        "alt_km": 812.479749681901,
        "timestamp": "2025-12-25T22:42:16.640108+00:00",
        "meta_object_name": "METEOR-M2 4",
        "meta_object_id": "2024-039A",
        "meta_epoch": "2025-12-25T18:56:11.118048",
        "meta_mean_motion": 14.2240327,
        "meta_eccentricity": 0.0006365,
        "meta_inclination": 98.6785,
        "meta_ra_of_asc_node": 316.4944,
        "meta_arg_of_pericenter": 319.1332,
        "meta_mean_anomaly": 40.9368,
        "meta_ephemeris_type": 0,
        "meta_classification_type": "U",
        "meta_norad_cat_id": 59051,
        "meta_element_set_no": 999,
        "meta_rev_at_epoch": 9461,
        "meta_bstar": 4.1493e-05,
        "meta_mean_motion_dot": 4.9e-07,
        "meta_mean_motion_ddot": 0,
        "tle_line1": "1 59051U 24039A   25359.78901757  .00000049  00000+0  41493-4 0  9993",
        "tle_line2": "2 59051  98.6785 316.4944 0006365 319.1332  40.9368 14.22403270 94613"
      },
      "geometry": {
        "type": "Point",
        "coordinates": [
          -96.95306974519332,
          79.25569591287697
        ]
      }
    },
    {
      "type": "Feature",
      "properties": {
        "norad_id": 60133,
        "name": "GOES 19",
        "group": "weather",
        "lat": 0.0007774188279688127,
        "lon": 0.08316327908495763,
        "alt_km": 35783.001081986295,
        "timestamp": "2025-12-25T22:42:16.640119+00:00",
        "meta_object_name": "GOES 19",
        "meta_object_id": "2024-119A",
        "meta_epoch": "2025-12-25T04:31:42.625056",
        "meta_mean_motion": 1.0027105,
        "meta_eccentricity": 0.00010365,
        "meta_inclination": 0.0152,
        "meta_ra_of_asc_node": 183.0311,
        "meta_arg_of_pericenter": 137.5029,
        "meta_mean_anomaly": 126.1624,
        "meta_ephemeris_type": 0,
        "meta_classification_type": "U",
        "meta_norad_cat_id": 60133,
        "meta_element_set_no": 999,
        "meta_rev_at_epoch": 521,
        "meta_bstar": 0,
        "meta_mean_motion_dot": -2.27e-06,
        "meta_mean_motion_ddot": 0,
        "tle_line1": "1 60133U 24119A   25359.18868779 -.00000227  00000+0  00000+0 0  9998",
        "tle_line2": "2 60133   0.0152 183.0311 0001036 137.5029 126.1624  1.00271050  5213"
      },
      "geometry": {
        "type": "Point",
        "coordinates": [
          0.08316327908495763,
          0.0007774188279688127
        ]
      }
    },
    {
      "type": "Feature",
      "properties": {
        "norad_id": 65815,
        "name": "FENGYUN 3H",
        "group": "weather",
        "lat": -23.81154736125019,
        "lon": 115.39419485258897,
        "alt_km": 831.1583379563335,
        "timestamp": "2025-12-25T22:42:16.640130+00:00",
        "meta_object_name": "FENGYUN 3H",
        "meta_object_id": "2025-219A",
        "meta_epoch": "2025-12-25T18:21:52.357248",
        "meta_mean_motion": 14.19908082,
        "meta_eccentricity": 8.53e-05,
        "meta_inclination": 98.6602,
        "meta_ra_of_asc_node": 299.0737,
        "meta_arg_of_pericenter": 109.3439,
        "meta_mean_anomaly": 250.783,
        "meta_ephemeris_type": 0,
        "meta_classification_type": "U",
        "meta_norad_cat_id": 65815,
        "meta_element_set_no": 999,
        "meta_rev_at_epoch": 1277,
        "meta_bstar": 6.4723e-05,
        "meta_mean_motion_dot": 9.4e-07,
        "meta_mean_motion_ddot": 0,
        "tle_line1": "1 65815U 25219A   25359.76518932  .00000094  00000+0  64723-4 0  9997",
        "tle_line2": "2 65815  98.6602 299.0737 0000853 109.3439 250.7830 14.19908082 12774"
      },
      "geometry": {
        "type": "Point",
        "coordinates": [
          115.39419485258897,
          -23.81154736125019
        ]
      }
    }
  ]
}